CELESTIS-02             
1 25160U 98007D   20045.76043844 -.00000089  00000-0  17853-4 0  9991
2 25160 107.9634 348.8852 0061124 132.8810 291.7504 14.21534640141544
CELESTIS-03             
1 26034U 99070C   20046.10327546  .00000851  00000-0  57221-4 0  9995
2 26034  98.2442 329.7033 0013360 129.5248 230.7162 15.09773117 92123
LACMA ENOCH             
1 43777U 18099V   20045.91400496  .00004654  00000-0  40423-3 0  9994
2 43777  97.7399 119.9330 0015900 231.8210 128.1581 14.97410723 65478
